{"type": "FeatureCollection", "features": [ {"type": "Feature", "properties": {"norad_id": 66939, "name": "STARLINK-36154", "group": "last-30-days", "lat": 32.51868339200033, "lon": 25.97721443379326, "alt_km": 356.51777863090956, "timestamp": "2025-12-23T07:45:08.118106+00:00", "meta": {"OBJECT_NAME": "STARLINK-36154", "OBJECT_ID": "2025-286Q", "EPOCH": "2025-12-22T22:00:03.000096", "MEAN_MOTION": 15.70981023, "ECCENTRICITY": 0.00010534, "INCLINATION": 53.159, "RA_OF_ASC_NODE": 359.4276, "ARG_OF_PERICENTER": 104.4103, "MEAN_ANOMALY": 159.9266, "EPHEMERIS_TYPE": 0, "CLASSIFICATION_TYPE": "U", "NORAD_CAT_ID": 66939, "ELEMENT_SET_NO": 999, "REV_AT_EPOCH": 362, "BSTAR": -0.017123565, "MEAN_MOTION_DOT": -0.0193825, "MEAN_MOTION_DDOT": 0}, "tle": {"line1": "1 66939U 25286Q   25356.91670139 -.01938250  00000+0 -17124-1 0  9998", "line2": "2 66939  53.1590 359.4276 0001053 104.4103 159.9266 15.70981023  3621"}}, "geometry": {"type": "Point", "coordinates": [25.97721443379326, 32.51868339200033]}}, {"type": "Feature", "properties": {"norad_id": 66940, "name": "STARLINK-36121", "group": "last-30-days", "lat": 33.856157045400835, "lon": 27.616081634465942, "alt_km": 356.3252430131215, "timestamp": "2025-12-23T07:45:08.118116+00:00", "meta": {"OBJECT_NAME": "STARLINK-36121", "OBJECT_ID": "2025-286R", "EPOCH": "2025-12-22T22:00:03.000096", "MEAN_MOTION": 15.70977564, "ECCENTRICITY": 0.00011234, "INCLINATION": 53.159, "RA_OF_ASC_NODE": 359.4232, "ARG_OF_PERICENTER": 111.4276, "MEAN_ANOMALY": 154.8281, "EPHEMERIS_TYPE": 0, "CLASSIFICATION_TYPE": "U", "NORAD_CAT_ID": 66940, "ELEMENT_SET_NO": 999, "REV_AT_EPOCH": 362, "BSTAR": -0.017080701, "MEAN_MOTION_DOT": -0.01933754, "MEAN_MOTION_DDOT": 0}, "tle": {"line1": "1 66940U 25286R   25356.91670139 -.01933754  00000+0 -17081-1 0  9996", "line2": "2 66940  53.1590 359.4232 0001123 111.4276 154.8281 15.70977564  3628"}}, "geometry": {"type": "Point", "coordinates": [27.616081634465942, 33.856157045400835]}}, {"type": "Feature", "properties": {"norad_id": 66941, "name": "STARLINK-36088", "group": "last-30-days", "lat": 35.200556858100335, "lon": 29.346528038286124, "alt_km": 351.2506154935854, "timestamp": "2025-12-23T07:45:08.118126+00:00", "meta": {"OBJECT_NAME": "STARLINK-36088", "OBJECT_ID": "2025-286S", "EPOCH": "2025-12-22T22:00:03.000096", "MEAN_MOTION": 15.72644482, "ECCENTRICITY": 9.413e-05, "INCLINATION": 53.159, "RA_OF_ASC_NODE": 359.4246, "ARG_OF_PERICENTER": 86.3272, "MEAN_ANOMALY": 179.4305, "EPHEMERIS_TYPE": 0, "CLASSIFICATION_TYPE": "U", "NORAD_CAT_ID": 66941, "ELEMENT_SET_NO": 999, "REV_AT_EPOCH": 362, "BSTAR": -0.015747737, "MEAN_MOTION_DOT": -0.01878655, "MEAN_MOTION_DDOT": 0}, "tle": {"line1": "1 66941U 25286S   25356.91670139 -.01878655  00000+0 -15748-1 0  9993", "line2": "2 66941  53.1590 359.4246 0000941  86.3272 179.4305 15.72644482  3629"}}, "geometry": {"type": "Point", "coordinates": [29.346528038286124, 35.200556858100335]}}, {"type": "Feature", "properties": {"norad_id": 66942, "name": "STARLINK-36100", "group": "last-30-days", "lat": 35.17298781635285, "lon": 29.309855808017144, "alt_km": 356.1022927727854, "timestamp": "2025-12-23T07:45:08.118138+00:00", "meta": {"OBJECT_NAME": "STARLINK-36100", "OBJECT_ID": "2025-286T", "EPOCH": "2025-12-22T22:00:03.000096", "MEAN_MOTION": 15.70980363, "ECCENTRICITY": 0.00010217, "INCLINATION": 53.1589, "RA_OF_ASC_NODE": 359.4193, "ARG_OF_PERICENTER": 109.3379, "MEAN_ANOMALY": 158.8338, "EPHEMERIS_TYPE": 0, "CLASSIFICATION_TYPE": "U", "NORAD_CAT_ID": 66942, "ELEMENT_SET_NO": 999, "REV_AT_EPOCH": 355, "BSTAR": -0.017118781, "MEAN_MOTION_DOT": -0.01937699, "MEAN_MOTION_DDOT": 0}, "tle": {"line1": "1 66942U 25286T   25356.91670139 -.01937699  00000+0 -17119-1 0  9992", "line2": "2 66942  53.1589 359.4193 0001021 109.3379 158.8338 15.70980363  3551"}}, "geometry": {"type": "Point", "coordinates": [29.309855808017144, 35.17298781635285]}}, {"type": "Feature", "properties": {"norad_id": 66943, "name": "STARLINK-36109", "group": "last-30-days", "lat": 36.46419942169811, "lon": 31.056832982742595, "alt_km": 355.8422398932553, "timestamp": "2025-12-23T07:45:08.118150+00:00", "meta": {"OBJECT_NAME": "STARLINK-36109", "OBJECT_ID": "2025-286U", "EPOCH": "2025-12-22T22:00:03.000096", "MEAN_MOTION": 15.70978, "ECCENTRICITY": 0.00010591, "INCLINATION": 53.159, "RA_OF_ASC_NODE": 359.4151, "ARG_OF_PERICENTER": 107.7629, "MEAN_ANOMALY": 162.3266, "EPHEMERIS_TYPE": 0, "CLASSIFICATION_TYPE": "U", "NORAD_CAT_ID": 66943, "ELEMENT_SET_NO": 999, "REV_AT_EPOCH": 355, "BSTAR": -0.017086513, "MEAN_MOTION_DOT": -0.01934321, "MEAN_MOTION_DDOT": 0}, "tle": {"line1": "1 66943U 25286U   25356.91670139 -.01934321  00000+0 -17087-1 0  9996", "line2": "2 66943  53.1590 359.4151 0001059 107.7629 162.3266 15.70978000  3554"}}, "geometry": {"type": "Point", "coordinates": [31.056832982742595, 36.46419942169811]}}, {"type": "Feature", "properties": {"norad_id": 66944, "name": "STARLINK-36112", "group": "last-30-days", "lat": 37.73039379967956, "lon": 32.8648762687141, "alt_km": 355.77228691516484, "timestamp": "2025-12-23T07:45:08.118160+00:00", "meta": {"OBJECT_NAME": "STARLINK-36112", "OBJECT_ID": "2025-286V", "EPOCH": "2025-12-22T22:00:03.000096", "MEAN_MOTION": 15.70973487, "ECCENTRICITY": 0.0001131, "INCLINATION": 53.159, "RA_OF_ASC_NODE": 359.411, "ARG_OF_PERICENTER": 119.4787, "MEAN_ANOMALY": 152.5497, "EPHEMERIS_TYPE": 0, "CLASSIFICATION_TYPE": "U", "NORAD_CAT_ID": 66944, "ELEMENT_SET_NO": 999, "REV_AT_EPOCH": 362, "BSTAR": -0.017254101, "MEAN_MOTION_DOT": -0.01950823, "MEAN_MOTION_DDOT": 0}, "tle": {"line1": "1 66944U 25286V   25356.91670139 -.01950823  00000+0 -17254-1 0  9998", "line2": "2 66944  53.1590 359.4110 0001131 119.4787 152.5497 15.70973487  3625"}}, "geometry": {"type": "Point", "coordinates": [32.8648762687141, 37.73039379967956]}}, {"type": "Feature", "properties": {"norad_id": 66945, "name": "STARLINK-36110", "group": "last-30-days", "lat": 38.965080116529535, "lon": 34.7308753398161, "alt_km": 355.4312638003539, "timestamp": "2025-12-23T07:45:08.118169+00:00", "meta": {"OBJECT_NAME": "STARLINK-36110", "OBJECT_ID": "2025-286W", "EPOCH": "2025-12-22T22:00:03.000096", "MEAN_MOTION": 15.70978194, "ECCENTRICITY": 0.00010483, "INCLINATION": 53.159, "RA_OF_ASC_NODE": 359.407, "ARG_OF_PERICENTER": 110.7312, "MEAN_ANOMALY": 163.1908, "EPHEMERIS_TYPE": 0, "CLASSIFICATION_TYPE": "U", "NORAD_CAT_ID": 66945, "ELEMENT_SET_NO": 999, "REV_AT_EPOCH": 362, "BSTAR": -0.017083318, "MEAN_MOTION_DOT": -0.01934007, "MEAN_MOTION_DDOT": 0}, "tle": {"line1": "1 66945U 25286W   25356.91670139 -.01934007  00000+0 -17083-1 0  9995", "line2": "2 66945  53.1590 359.4070 0001048 110.7312 163.1908 15.70978194  3621"}}, "geometry": {"type": "Point", "coordinates": [34.7308753398161, 38.965080116529535]}}, {"type": "Feature", "properties": {"norad_id": 66946, "name": "STARLINK-36115", "group": "last-30-days", "lat": 40.169629775889895, "lon": 36.66382704840654, "alt_km": 355.1101176737411, "timestamp": "2025-12-23T07:45:08.118179+00:00", "meta": {"OBJECT_NAME": "STARLINK-36115", "OBJECT_ID": "2025-286X", "EPOCH": "2025-12-22T22:00:03.000096", "MEAN_MOTION": 15.70976846, "ECCENTRICITY": 0.00012074, "INCLINATION": 53.1589, "RA_OF_ASC_NODE": 359.403, "ARG_OF_PERICENTER": 106.2242, "MEAN_ANOMALY": 169.6149, "EPHEMERIS_TYPE": 0, "CLASSIFICATION_TYPE": "U", "NORAD_CAT_ID": 66946, "ELEMENT_SET_NO": 999, "REV_AT_EPOCH": 362, "BSTAR": -0.017064733, "MEAN_MOTION_DOT": -0.01932163, "MEAN_MOTION_DDOT": 0}, "tle": {"line1": "1 66946U 25286X   25356.91670139 -.01932163  00000+0 -17065-1 0  9997", "line2": "2 66946  53.1589 359.4030 0001207 106.2242 169.6149 15.70976846  3625"}}, "geometry": {"type": "Point", "coordinates": [36.66382704840654, 40.169629775889895]}}, {"type": "Feature", "properties": {"norad_id": 66947, "name": "STARLINK-36089", "group": "last-30-days", "lat": 42.47833411176397, "lon": 40.743928636728484, "alt_km": 354.87756174947754, "timestamp": "2025-12-23T07:45:08.118189+00:00", "meta": {"OBJECT_NAME": "STARLINK-36089", "OBJECT_ID": "2025-286Y", "EPOCH": "2025-12-22T22:00:03.000096", "MEAN_MOTION": 15.70977123, "ECCENTRICITY": 9.287e-05, "INCLINATION": 53.159, "RA_OF_ASC_NODE": 359.3946, "ARG_OF_PERICENTER": 93.5805, "MEAN_ANOMALY": 186.0894, "EPHEMERIS_TYPE": 0, "CLASSIFICATION_TYPE": "U", "NORAD_CAT_ID": 66947, "ELEMENT_SET_NO": 999, "REV_AT_EPOCH": 362, "BSTAR": -0.017028229, "MEAN_MOTION_DOT": -0.01928318, "MEAN_MOTION_DDOT": 0}, "tle": {"line1": "1 66947U 25286Y   25356.91670139 -.01928318  00000+0 -17028-1 0  9994", "line2": "2 66947  53.1590 359.3946 0000928  93.5805 186.0894 15.70977123  3624"}}, "geometry": {"type": "Point", "coordinates": [40.743928636728484, 42.47833411176397]}}, {"type": "Feature", "properties": {"norad_id": 66948, "name": "STARLINK-36116", "group": "last-30-days", "lat": 41.344461883048446, "lon": 38.67200796684237, "alt_km": 355.0057145466362, "timestamp": "2025-12-23T07:45:08.118199+00:00", "meta": {"OBJECT_NAME": "STARLINK-36116", "OBJECT_ID": "2025-286Z", "EPOCH": "2025-12-22T22:00:03.000096", "MEAN_MOTION": 15.70969881, "ECCENTRICITY": 9.579e-05, "INCLINATION": 53.1589, "RA_OF_ASC_NODE": 359.3988, "ARG_OF_PERICENTER": 84.055, "MEAN_ANOMALY": 193.717, "EPHEMERIS_TYPE": 0, "CLASSIFICATION_TYPE": "U", "NORAD_CAT_ID": 66948, "ELEMENT_SET_NO": 999, "REV_AT_EPOCH": 362, "BSTAR": -0.017114427, "MEAN_MOTION_DOT": -0.01936454, "MEAN_MOTION_DDOT": 0}, "tle": {"line1": "1 66948U 25286Z   25356.91670139 -.01936454  00000+0 -17114-1 0  9991", "line2": "2 66948  53.1589 359.3988 0000957  84.0550 193.7170 15.70969881  3627"}}, "geometry": {"type": "Point", "coordinates": [38.67200796684237, 41.344461883048446]}}]}